[{"OBJECT_NAME":"STARLING 2","OBJECT_ID":"2023-100B","EPOCH":"2026-03-09T22:50:31.935264","MEAN_MOTION":15.06172687,"ECCENTRICITY":0.00065493,"INCLINATION":99.5117,"RA_OF_ASC_NODE":63.5956,"ARG_OF_PERICENTER":83.1191,"MEAN_ANOMALY":277.0775,"EPHEMERIS_TYPE":0,"CLASSIFICATION_TYPE":"U","NORAD_CAT_ID":57387,"ELEMENT_SET_NO":999,"REV_AT_EPOCH":14496,"BSTAR":0.00017665492,"MEAN_MOTION_DOT":2.498e-5,"MEAN_MOTION_DDOT":0},{"OBJECT_NAME":"STARLINK-34970","OBJECT_ID":"2025-194S","EPOCH":"2026-03-09T13:24:00.112032","MEAN_MOTION":15.05626272,"ECCENTRICITY":0.00017003,"INCLINATION":97.6018,"RA_OF_ASC_NODE":284.1979,"ARG_OF_PERICENTER":72.0647,"MEAN_ANOMALY":288.0765,"EPHEMERIS_TYPE":0,"CLASSIFICATION_TYPE":"U","NORAD_CAT_ID":65450,"ELEMENT_SET_NO":999,"REV_AT_EPOCH":2962,"BSTAR":-0.00012112828,"MEAN_MOTION_DOT":-1.807e-5,"MEAN_MOTION_DDOT":0}]
